IRIDIUM 71 [-]          
1 25320U 98026B   18064.54024380  .00000115  00000-0  30676-4 0  9995
2 25320  86.3985 131.6026 0002458 146.0580 214.0776 14.39135817 41054
IRIDIUM 70 [+]          
1 25342U 98032A   18064.56008341  .00000062  00000-0  14971-4 0  9998
2 25342  86.3948 115.0767 0002090  97.2914 262.8520 14.34221237 36560
IRIDIUM 72 [+]          
1 25343U 98032B   18064.54739719  .00000097  00000-0  27496-4 0  9991
2 25343  86.3942 114.6764 0002194  96.7678 263.3768 14.34221398 36561
IRIDIUM 73 [-]          
1 25344U 98032C   18063.68413406  .00000109  00000-0  23399-4 0  9990
2 25344  86.4384  92.8902 0001667  89.9346 270.2049 14.49098376 44971
IRIDIUM 75 [+]          
1 25346U 98032E   18064.55374036  .00000097  00000-0  27444-4 0  9995
2 25346  86.3946 114.9355 0002206  96.0146 264.1301 14.34221381 37132
IRIDIUM 76 [+]          
1 25432U 98048B   18064.34793345  .00000164  00000-0  51542-4 0  9994
2 25432  86.3993 146.3519 0002060  95.3470 264.7961 14.34225272 23025
IRIDIUM 82 [-]          
1 25467U 98051A   18064.53920012  .00000867  00000-0  63065-4 0  9993
2 25467  86.3968 261.2464 0181856 178.7790 181.3922 14.89756082 25743
IRIDIUM 81 [+]          
1 25468U 98051B   18064.56524842  .00000011  00000-0 -30690-5 0  9999
2 25468  86.4195 272.5570 0002008  78.5892 281.5532 14.38609460 20422
IRIDIUM 80 [+]          
1 25469U 98051C   18064.60001606 -.00000049  00000-0 -24444-4 0  9994
2 25469  86.3924 272.7943 0002402  96.9346 315.5630 14.34217655 20305
IRIDIUM 2 [-]           
1 25527U 98066A   18064.55662177  .00001083  00000-0  52585-4 0  9999
2 25527  85.5281 237.8678 0008071 195.6354 164.4638 15.17215820 57491
IRIDIUM 86 [+]          
1 25528U 98066B   18064.53573981 -.00000066  00000-0 -30775-4 0  9991
2 25528  86.3931 240.4903 0001805 117.5672 242.5708 14.34214885 16824
IRIDIUM 84 [+]          
1 25530U 98066D   18064.56745520 -.00000075  00000-0 -33685-4 0  9990
2 25530  86.3933 240.6463 0001944  87.1106 273.0312 14.34214734 14461
IRIDIUM 83 [+]          
1 25531U 98066E   18064.52943026 -.00000058  00000-0 -27948-4 0  9994
2 25531  86.3936 240.7985 0002017  87.3296 272.8131 14.34213710 11814
IRIDIUM 20 [+]          
1 25577U 98074A   18064.37962333  .00000177  00000-0  56309-4 0  9991
2 25577  86.3992 146.2569 0002175  99.1272 261.0170 14.34215561  5872
IRIDIUM 11 [+]          
1 25578U 98074B   18064.34369193  .00000170  00000-0  53606-4 0  9994
2 25578  86.3999 146.4868 0002048  79.9326 322.9919 14.34216504 14820
IRIDIUM 14 [+]          
1 25777U 99032A   18064.57276632  .00000095  00000-0  26888-4 0  9998
2 25777  86.3943 114.7547 0002138  97.8318 262.3121 14.34221538992147
IRIDIUM 21 [+]          
1 25778U 99032B   18064.54105497  .00000085  00000-0  23326-4 0  9999
2 25778  86.3942 114.7833 0002213  92.2069 267.9380 14.34221430985579
IRIDIUM 91 [+]          
1 27372U 02005A   18064.37039781  .00000153  00000-0  47520-4 0  9996
2 27372  86.4021 178.0260 0001699 100.4123 259.7265 14.34214243849065
IRIDIUM 90 [B]          
1 27373U 02005B   18064.55816777 -.00000049  00000-0 -20768-4 0  9996
2 27373  86.4447 240.7809 0001871  89.6847 270.4568 14.42944765849049
IRIDIUM 94 [P]          
1 27374U 02005C   18064.51100413  .00000258  00000-0  46015-4 0  9999
2 27374  86.3811 146.4746 0099276 353.1131   6.8706 14.59412219853409
IRIDIUM 95 [+]          
1 27375U 02005D   18064.40852291  .00000162  00000-0  50937-4 0  9998
2 27375  86.4017 178.0224 0001673  76.3949 283.7433 14.34217724848354
IRIDIUM 96 [P]          
1 27376U 02005E   18064.42866007  .00025805 -79647-6  29515-3 0  9999
2 27376  86.3851 205.4574 0313063 245.3900 111.4436 15.20168922854175
IRIDIUM 97 [+]          
1 27450U 02031A   18064.51956071  .00000060  00000-0  14459-4 0  9990
2 27450  86.3990 209.6576 0002009  86.4281 273.7145 14.34256260827683
IRIDIUM 98 [+]          
1 27451U 02031B   18064.52644354 -.00000051  00000-0 -25210-4 0  9999
2 27451  86.3918 272.9039 0001840  97.5973 262.5432 14.34217589828760
